start=new Date('2022-01-19T00:00:00.000Z').valueOf();
sats=[{"MEAN_ELEMENT_THEORY":"SGP4","SITE":"AFETR","GP_ID":"194155558","COUNTRY_CODE":"US","SEMIMAJOR_AXIS":"6925.367","OBJECT_ID":"2021-018BC","ELEMENT_SET_NO":"999","BSTAR":"-0.00010286000000","TLE_LINE2":"2 47837  53.0560 174.0992 0002186  77.4273 282.6960 15.06394129 49162","PERIAPSIS":"545.718","RA_OF_ASC_NODE":"174.0992","LAUNCH_DATE":"2021-03-11","ECCENTRICITY":"0.00021860","FILE":"3276875","NORAD_CAT_ID":"47837","CLASSIFICATION_TYPE":"U","APOAPSIS":"548.745","ARG_OF_PERICENTER":"77.4273","PERIOD":"95.593","MEAN_MOTION_DOT":"-0.00001813","INCLINATION":"53.0560","REV_AT_EPOCH":"4916","EPOCH":"2022-01-18T20:09:19.585728","DECAY_DATE":null,"MEAN_ANOMALY":"282.6960","OBJECT_NAME":"STARLINK-2427","EPHEMERIS_TYPE":"0","MEAN_MOTION":"15.06394129","OBJECT_TYPE":"PAYLOAD","RCS_SIZE":"LARGE","REF_FRAME":"TEME","MEAN_MOTION_DDOT":"0.0000000000000","CENTER_NAME":"EARTH","TIME_SYSTEM":"UTC","TLE_LINE1":"1 47837U 21018BC  22018.83981002 -.00001813  00000-0 -10286-3 0  9990"},{"MEAN_ANOMALY":"282.0400","DECAY_DATE":null,"OBJECT_NAME":"STARLINK-2429","EPHEMERIS_TYPE":"0","MEAN_MOTION":"15.06393254","OBJECT_TYPE":"PAYLOAD","APOAPSIS":"548.878","PERIOD":"95.593","ARG_OF_PERICENTER":"78.0855","MEAN_MOTION_DOT":"0.00000001","INCLINATION":"53.0538","REV_AT_EPOCH":"4886","EPOCH":"2022-01-18T18:52:23.028096","TLE_LINE1":"1 47838U 21018BD  22018.78637764  .00000001  00000-0  19001-4 0  9999","RCS_SIZE":"LARGE","REF_FRAME":"TEME","CENTER_NAME":"EARTH","MEAN_MOTION_DDOT":"0.0000000000000","TIME_SYSTEM":"UTC","OBJECT_ID":"2021-018BD","ELEMENT_SET_NO":"999","BSTAR":"0.00001900100000","TLE_LINE2":"2 47838  53.0538 194.3300 0002373  78.0855 282.0400 15.06393254 48864","PERIAPSIS":"545.591","MEAN_ELEMENT_THEORY":"SGP4","SITE":"AFETR","GP_ID":"194155292","COUNTRY_CODE":"US","SEMIMAJOR_AXIS":"6925.369","FILE":"3276875","NORAD_CAT_ID":"47838","CLASSIFICATION_TYPE":"U","RA_OF_ASC_NODE":"194.3300","ECCENTRICITY":"0.00023730","LAUNCH_DATE":"2021-03-11"},{"REV_AT_EPOCH":"4928","EPOCH":"2022-01-18T16:22:24.577824","APOAPSIS":"548.903","PERIOD":"95.592","ARG_OF_PERICENTER":"88.8260","MEAN_MOTION_DOT":"-0.00000934","INCLINATION":"53.0541","OBJECT_NAME":"STARLINK-2431","EPHEMERIS_TYPE":"0","MEAN_MOTION":"15.06406387","OBJECT_TYPE":"PAYLOAD","DECAY_DATE":null,"MEAN_ANOMALY":"271.3012","RCS_SIZE":"LARGE","REF_FRAME":"TEME","MEAN_MOTION_DDOT":"0.0000000000000","CENTER_NAME":"EARTH","TIME_SYSTEM":"UTC","TLE_LINE1":"1 47839U 21018BE  22018.68222891 -.00000934  00000-0 -43799-4 0  9998","SEMIMAJOR_AXIS":"6925.329","MEAN_ELEMENT_THEORY":"SGP4","SITE":"AFETR","GP_ID":"194154062","COUNTRY_CODE":"US","BSTAR":"-0.00004379900000","TLE_LINE2":"2 47839  53.0541 164.7900 0002468  88.8260 271.3012 15.06406387 49289","PERIAPSIS":"545.485","OBJECT_ID":"2021-018BE","ELEMENT_SET_NO":"999","RA_OF_ASC_NODE":"164.7900","ECCENTRICITY":"0.00024680","LAUNCH_DATE":"2021-03-11","NORAD_CAT_ID":"47839","CLASSIFICATION_TYPE":"U","FILE":"3276875"},{"RCS_SIZE":"LARGE","TIME_SYSTEM":"UTC","MEAN_MOTION_DDOT":"0.0000000000000","CENTER_NAME":"EARTH","REF_FRAME":"TEME","TLE_LINE1":"1 47840U 21018BF  22018.82506837 -.00001218  00000-0 -62855-4 0  9991","REV_AT_EPOCH":"4915","EPOCH":"2022-01-18T19:48:05.907168","PERIOD":"95.592","ARG_OF_PERICENTER":"78.0197","APOAPSIS":"548.753","INCLINATION":"53.0545","MEAN_MOTION_DOT":"-0.00001218","EPHEMERIS_TYPE":"0","MEAN_MOTION":"15.06401682","OBJECT_NAME":"STARLINK-2432","OBJECT_TYPE":"PAYLOAD","MEAN_ANOMALY":"282.1041","DECAY_DATE":null,"RA_OF_ASC_NODE":"174.1477","LAUNCH_DATE":"2021-03-11","ECCENTRICITY":"0.00022300","NORAD_CAT_ID":"47840","CLASSIFICATION_TYPE":"U","FILE":"3276875","SEMIMAJOR_AXIS":"6925.343","SITE":"AFETR","GP_ID":"194154313","MEAN_ELEMENT_THEORY":"SGP4","COUNTRY_CODE":"US","BSTAR":"-0.00006285500000","PERIAPSIS":"545.664","TLE_LINE2":"2 47840  53.0545 174.1477 0002230  78.0197 282.1041 15.06401682 49157","OBJECT_ID":"2021-018BF","ELEMENT_SET_NO":"999"},{"OBJECT_ID":"2021-018BG","ELEMENT_SET_NO":"999","BSTAR":"0.00013317000000","PERIAPSIS":"545.789","TLE_LINE2":"2 47841  53.0533 174.1623 0002047  86.5073 273.6150 15.06402372 49154","GP_ID":"194155058","SITE":"AFETR","MEAN_ELEMENT_THEORY":"SGP4","COUNTRY_CODE":"US","SEMIMAJOR_AXIS":"6925.341","FILE":"3276875","NORAD_CAT_ID":"47841","CLASSIFICATION_TYPE":"U","RA_OF_ASC_NODE":"174.1623","LAUNCH_DATE":"2021-03-11","ECCENTRICITY":"0.00020470","DECAY_DATE":null,"MEAN_ANOMALY":"273.6150","MEAN_MOTION":"15.06402372","EPHEMERIS_TYPE":"0","OBJECT_NAME":"STARLINK-2433","OBJECT_TYPE":"PAYLOAD","PERIOD":"95.592","ARG_OF_PERICENTER":"86.5073","APOAPSIS":"548.624","INCLINATION":"53.0533","MEAN_MOTION_DOT":"0.00001703","REV_AT_EPOCH":"4915","EPOCH":"2022-01-18T19:42:47.088576","TLE_LINE1":"1 47841U 21018BG  22018.82137834  .00001703  00000-0  13317-3 0  9994","RCS_SIZE":"LARGE","CENTER_NAME":"EARTH","MEAN_MOTION_DDOT":"0.0000000000000","TIME_SYSTEM":"UTC","REF_FRAME":"TEME"},{"FILE":"3276875","CLASSIFICATION_TYPE":"U","NORAD_CAT_ID":"47842","ECCENTRICITY":"0.00021880","LAUNCH_DATE":"2021-03-11","RA_OF_ASC_NODE":"203.9412","ELEMENT_SET_NO":"999","OBJECT_ID":"2021-018BH","PERIAPSIS":"545.684","TLE_LINE2":"2 47842  53.0534 203.9412 0002188  76.0276 284.0956 15.06404554 48791","BSTAR":"-0.00002236200000","COUNTRY_CODE":"US","GP_ID":"194155793","SITE":"AFETR","MEAN_ELEMENT_THEORY":"SGP4","SEMIMAJOR_AXIS":"6925.335","TLE_LINE1":"1 47842U 21018BH  22018.87390099 -.00000615  00000-0 -22362-4 0  9998","CENTER_NAME":"EARTH","MEAN_MOTION_DDOT":"0.0000000000000","TIME_SYSTEM":"UTC","REF_FRAME":"TEME","RCS_SIZE":"LARGE","DECAY_DATE":null,"MEAN_ANOMALY":"284.0956","OBJECT_TYPE":"PAYLOAD","MEAN_MOTION":"15.06404554","EPHEMERIS_TYPE":"0","OBJECT_NAME":"STARLINK-2434","INCLINATION":"53.0534","MEAN_MOTION_DOT":"-0.00000615","ARG_OF_PERICENTER":"76.0276","PERIOD":"95.592","APOAPSIS":"548.715","EPOCH":"2022-01-18T20:58:25.045536","REV_AT_EPOCH":"4879"},{"TLE_LINE1":"1 47843U 21018BJ  22018.84673488 -.00000146  00000-0  90960-5 0  9990","RCS_SIZE":"LARGE","TIME_SYSTEM":"UTC","MEAN_MOTION_DDOT":"0.0000000000000","CENTER_NAME":"EARTH","REF_FRAME":"TEME","DECAY_DATE":null,"MEAN_ANOMALY":"290.2550","EPHEMERIS_TYPE":"0","MEAN_MOTION":"15.06400089","OBJECT_NAME":"STARLINK-2435","OBJECT_TYPE":"PAYLOAD","PERIOD":"95.592","ARG_OF_PERICENTER":"69.8673","APOAPSIS":"548.720","INCLINATION":"53.0553","MEAN_MOTION_DOT":"-0.00000146","REV_AT_EPOCH":"4882","EPOCH":"2022-01-18T20:19:17.893632","FILE":"3276875","NORAD_CAT_ID":"47843","CLASSIFICATION_TYPE":"U","RA_OF_ASC_NODE":"199.0678","ECCENTRICITY":"0.00021760","LAUNCH_DATE":"2021-03-11","OBJECT_ID":"2021-018BJ","ELEMENT_SET_NO":"999","BSTAR":"0.00000909600000","PERIAPSIS":"545.706","TLE_LINE2":"2 47843  53.0553 199.0678 0002176  69.8673 290.2550 15.06400089 48822","SITE":"AFETR","GP_ID":"194154563","MEAN_ELEMENT_THEORY":"SGP4","COUNTRY_CODE":"US","SEMIMAJOR_AXIS":"6925.348"},{"OBJECT_TYPE":"PAYLOAD","EPHEMERIS_TYPE":"0","MEAN_MOTION":"15.06399316","OBJECT_NAME":"STARLINK-2446","MEAN_ANOMALY":"281.5124","DECAY_DATE":null,"EPOCH":"2022-01-18T18:41:45.708864","REV_AT_EPOCH":"4886","INCLINATION":"53.0546","MEAN_MOTION_DOT":"-0.00000129","PERIOD":"95.592","ARG_OF_PERICENTER":"78.6124","APOAPSIS":"548.812","TLE_LINE1":"1 47844U 21018BK  22018.77900126 -.00000129  00000-0  10237-4 0  9994","MEAN_MOTION_DDOT":"0.0000000000000","TIME_SYSTEM":"UTC","CENTER_NAME":"EARTH","REF_FRAME":"TEME","RCS_SIZE":"LARGE","PERIAPSIS":"545.619","TLE_LINE2":"2 47844  53.0546 194.3610 0002305  78.6124 281.5124 15.06399316 48866","BSTAR":"0.00001023700000","ELEMENT_SET_NO":"999","OBJECT_ID":"2021-018BK","SEMIMAJOR_AXIS":"6925.351","COUNTRY_CODE":"US","GP_ID":"194154814","SITE":"AFETR","MEAN_ELEMENT_THEORY":"SGP4","CLASSIFICATION_TYPE":"U","NORAD_CAT_ID":"47844","FILE":"3276875","LAUNCH_DATE":"2021-03-11","ECCENTRICITY":"0.00023050","RA_OF_ASC_NODE":"194.3610"},{"RCS_SIZE":"LARGE","REF_FRAME":"TEME","MEAN_MOTION_DDOT":"0.0000000000000","CENTER_NAME":"EARTH","TIME_SYSTEM":"UTC","TLE_LINE1":"1 47845U 21018BL  22018.86378527 -.00000173  00000-0  73323-5 0  9994","APOAPSIS":"548.888","ARG_OF_PERICENTER":"75.7497","PERIOD":"95.592","MEAN_MOTION_DOT":"-0.00000173","INCLINATION":"53.0541","REV_AT_EPOCH":"4888","EPOCH":"2022-01-18T20:43:51.047328","MEAN_ANOMALY":"284.3757","DECAY_DATE":null,"OBJECT_NAME":"STARLINK-2453","EPHEMERIS_TYPE":"0","MEAN_MOTION":"15.06394988","OBJECT_TYPE":"PAYLOAD","RA_OF_ASC_NODE":"193.9876","ECCENTRICITY":"0.00023950","LAUNCH_DATE":"2021-03-11","FILE":"3276875","NORAD_CAT_ID":"47845","CLASSIFICATION_TYPE":"U","MEAN_ELEMENT_THEORY":"SGP4","GP_ID":"194155559","SITE":"AFETR","COUNTRY_CODE":"US","SEMIMAJOR_AXIS":"6925.364","OBJECT_ID":"2021-018BL","ELEMENT_SET_NO":"999","BSTAR":"0.00000733230000","TLE_LINE2":"2 47845  53.0541 193.9876 0002395  75.7497 284.3757 15.06394988 48886","PERIAPSIS":"545.570"},{"LAUNCH_DATE":"2021-03-11","ECCENTRICITY":"0.00022830","RA_OF_ASC_NODE":"194.3001","CLASSIFICATION_TYPE":"U","NORAD_CAT_ID":"47846","FILE":"3276875","SEMIMAJOR_AXIS":"6925.355","COUNTRY_CODE":"US","SITE":"AFETR","GP_ID":"194155293","MEAN_ELEMENT_THEORY":"SGP4","PERIAPSIS":"545.639","TLE_LINE2":"2 47846  53.0542 194.3001 0002283  81.3112 278.8136 15.06397852 48923","BSTAR":"-0.00001874000000","ELEMENT_SET_NO":"999","OBJECT_ID":"2021-018BM","CENTER_NAME":"EARTH","MEAN_MOTION_DDOT":"0.0000000000000","TIME_SYSTEM":"UTC","REF_FRAME":"TEME","RCS_SIZE":"LARGE","TLE_LINE1":"1 47846U 21018BM  22018.79374875 -.00000561  00000-0 -18740-4 0  9992","EPOCH":"2022-01-18T19:02:59.892000","REV_AT_EPOCH":"4892","INCLINATION":"53.0542","MEAN_MOTION_DOT":"-0.00000561","ARG_OF_PERICENTER":"81.3112","PERIOD":"95.592","APOAPSIS":"548.801","OBJECT_TYPE":"PAYLOAD","EPHEMERIS_TYPE":"0","MEAN_MOTION":"15.06397852","OBJECT_NAME":"STARLINK-2456","DECAY_DATE":null,"MEAN_ANOMALY":"278.8136"}];
